[{"OBJECT_NAME":"COSMOS 2409","OBJECT_ID":"2004-037B","EPOCH":"2026-03-09T23:45:47.975040","MEAN_MOTION":12.45320946,"ECCENTRICITY":0.00142208,"INCLINATION":82.4869,"RA_OF_ASC_NODE":31.1814,"ARG_OF_PERICENTER":132.9938,"MEAN_ANOMALY":227.2338,"EPHEMERIS_TYPE":0,"CLASSIFICATION_TYPE":"U","NORAD_CAT_ID":28420,"ELEMENT_SET_NO":999,"REV_AT_EPOCH":97520,"BSTAR":-0.00011281678,"MEAN_MOTION_DOT":-6.0e-8,"MEAN_MOTION_DDOT":0},{"OBJECT_NAME":"COSMOS 1041","OBJECT_ID":"1978-091H","EPOCH":"2026-03-09T22:02:58.323840","MEAN_MOTION":12.43324472,"ECCENTRICITY":0.00188598,"INCLINATION":74.0366,"RA_OF_ASC_NODE":35.4855,"ARG_OF_PERICENTER":78.6202,"MEAN_ANOMALY":345.7821,"EPHEMERIS_TYPE":0,"CLASSIFICATION_TYPE":"U","NORAD_CAT_ID":11050,"ELEMENT_SET_NO":999,"REV_AT_EPOCH":15274,"BSTAR":8.19427e-5,"MEAN_MOTION_DOT":-4.0e-8,"MEAN_MOTION_DDOT":0}]
